0 FENGYUN 1C DEB
1 30576U 99025ALS 13282.57009688  .00005939  00000-0  23084-2 0  7202
2 30576 099.0642 019.7690 0129145 227.8949 264.3458 14.25745678349083
0 FENGYUN 1C DEB
1 30576U 99025ALS 13283.83077800  .00007252  00000-0  28130-2 0  7211
2 30576 099.0640 021.0724 0129252 224.3116 255.0105 14.25758819349269
0 FENGYUN 1C DEB
1 30576U 99025ALS 13285.01778637  .00005740  00000-0  22299-2 0  7220
2 30576 099.0644 022.2999 0129339 220.9361 227.5943 14.25771372349432
0 FENGYUN 1C DEB
1 30576U 99025ALS 13286.07774569  .00005650  00000-0  21944-2 0  7234
2 30576 099.0647 023.3960 0129420 217.9203 268.1161 14.25783096349582
0 FENGYUN 1C DEB
1 30576U 99025ALS 13287.12921448  .00005881  00000-0  22827-2 0  7249
2 30576 099.0650 024.4836 0129486 214.9333 265.0998 14.25792491349733
0 FENGYUN 1C DEB
1 30576U 99025ALS 13288.81355515  .00007766  00000-0  30056-2 0  7250
2 30576 099.0656 026.2259 0129567 210.1729 270.5610 14.25817648349975
0 FENGYUN 1C DEB
1 30576U 99025ALS 13290.00055343  .00007734  00000-0  29923-2 0  7267
2 30576 099.0659 027.4537 0129577 206.8005 243.3541 14.25833541350142
0 FENGYUN 1C DEB
1 30576U 99025ALS 13290.54427894  .00006156  00000-0  23703-2 0  7289
2 30576 099.0640 028.0159 0129668 205.1619 154.3687 14.25837689350221
0 FENGYUN 1C DEB
1 30576U 99025ALS 13291.25653193  .00007613  00000-0  29449-2 0  7272
2 30576 099.0658 028.7530 0129616 203.2543 210.2694 14.25850546350326
0 FENGYUN 1C DEB
1 30576U 99025ALS 13292.53512899  .00007766  00000-0  30021-2 0  7289
2 30576 099.0657 030.0755 0129670 199.6555 293.3546 14.25867833350506
0 FENGYUN 1C DEB
1 30576U 99025ALS 13293.58653970  .00008248  00000-0  31860-2 0  7290
2 30576 099.0654 031.1629 0129679 196.6765 290.3637 14.25883356350656
0 FENGYUN 1C DEB
1 30576U 99025ALS 13294.77883009  .00009075  00000-0  35020-2 0  7303
2 30576 099.0651 032.3963 0129699 193.2826 290.6064 14.25898891350826
0 FENGYUN 1C DEB
1 30576U 99025ALS 13295.96574876  .00009249  00000-0  35677-2 0  7316
2 30576 099.0646 033.6244 0129679 189.9400 263.3119 14.25914263350992
